LEMUR-2-GREENBERG       
1 42837U 17042N   26164.75432655  .00016667  00000+0  55382-3 0  9995
2 42837  97.3810 345.3955 0008857  26.1376 334.0310 15.31231630487863
LEMUR-2-ANDIS           
1 42838U 17042P   26164.46544460  .00020649  00000+0  61456-3 0  9996
2 42838  97.3668 345.2793 0008563  25.4748 334.6916 15.34707591487880
LEMUR-2-MONSON          
1 42839U 17042Q   26164.75566407  .00014304  00000+0  52674-3 0  9997
2 42839  97.4070 345.3743 0006545  18.6729 341.4750 15.27928481487647
LEMUR-2-PETERG          
1 42841U 17042S   26164.77347456  .00021176  00000+0  64976-3 0  9996
2 42841  97.3978 349.7987 0003508  10.7537 349.3779 15.33766657487910
LEMUR-2-DEMBITZ         
1 42842U 17042T   26164.76568256  .00016527  00000+0  56720-3 0  9991
2 42842  97.3817 346.3911 0007062  40.3612 319.8152 15.30198902487821
LEMUR-2-ZACHARY         
1 42845U 17042W   26164.76871439  .00047054  00000+0  83770-3 0  9998
2 42845  97.3595 356.3339 0003152  46.5533 313.5981 15.49990885488673
LEMUR-2-AMANDA-SVANTE   
1 48269U 21034B   26164.83549788  .00032313  00000+0  97820-3 0  9990
2 48269  97.5769 243.0325 0001911 218.2028 141.9079 15.34113521280544
LEMUR-2-SPECIAL-K       
1 48273U 21034F   26164.18242028  .00143233  00000+0  15334-2 0  9993
2 48273  97.5659 250.7526 0003818 230.6982 129.3938 15.63381328281066
LEMUR-2-DEVERILL-M-T    
1 57391U 23100F   26164.85542923  .00026632  00000+0  67709-3 0  9998
2 57391  99.4475 202.6512 0006653  61.0244 299.1662 15.39599682160739
LEMUR-2-BASS            
1 58259U 23174D   26164.77325106  .00018499  00000+0  42103-3 0  9999
2 58259  97.3851 249.4376 0007447 173.3250 186.8098 15.42990260144830
LEMUR-2-JK0903EM1407    
1 58336U 23174CJ  26164.85467035  .00029490  00000+0  49879-3 0  9992
2 58336  97.3926 255.2310 0005873 129.3068 230.8706 15.51524335145216
LEMUR-2-NIMBUS2000      
1 58899U 24022A   26164.82982762  .00017297  00000+0  43590-3 0  9991
2 58899  97.4111  14.7899 0010220 126.1458 234.0735 15.39898226131758
LEMUR-2-VALHALLA        
1 58900U 24022B   26164.56536573  .00016297  00000+0  41521-3 0  9991
2 58900  97.4110  14.5148 0010756 123.3126 236.9151 15.39571585131715
LEMUR-2-OBA-NI-JESU     
1 58902U 24022D   26164.26942669  .07840474  25257-5  90464-3 0  9993
2 58902  97.3603  29.4721 0009182 248.5343 111.4976 16.36778297132706
LEMUR-2-CAEL            
1 58903U 24022E   26164.83800513  .00017457  00000+0  42617-3 0  9998
2 58903  97.4091  15.7207 0009264 107.4150 252.8110 15.40875148131825
LEMUR-2-STELLA          
1 60533U 24149BT  26164.77232616  .00012513  00000+0  73715-3 0  9997
2 60533  97.6745 247.2120 0001624  94.9619 265.1797 15.11743429 99985
LEMUR-2-AHMED-ASRAR     
1 60576U 24149DN  26164.78883830  .00013386  00000+0  76880-3 0  9990
2 60576  97.7009 249.7538 0002034  48.0575 312.0828 15.12643178100052
LEMUR-2-SIERRINI        
1 60579U 24149DR  26164.77421666  .00012550  00000+0  75682-3 0  9998
2 60579  97.6848 247.3506 0005542 176.0793 184.0481 15.10882300 99942
LEMUR-2-WILSON          
1 62694U 25009CP  26164.74879888  .00002359  00000+0  22010-3 0  9997
2 62694  97.7024 243.2734 0004294  65.0495 295.1171 14.95150447 76842
LEMUR-2-STAR-FOX        
1 62696U 25009CR  26164.69627615  .00008333  00000+0  63245-3 0  9995
2 62696  97.6959 246.3297 0003504 119.4913 240.6661 15.02456923 77038
